[{"OBJECT_NAME":"GONETS-M 22","OBJECT_ID":"2020-091C","EPOCH":"2026-03-09T22:36:19.168992","MEAN_MOTION":12.42887547,"ECCENTRICITY":0.00227608,"INCLINATION":82.5083,"RA_OF_ASC_NODE":3.7455,"ARG_OF_PERICENTER":33.9218,"MEAN_ANOMALY":326.3312,"EPHEMERIS_TYPE":0,"CLASSIFICATION_TYPE":"U","NORAD_CAT_ID":47229,"ELEMENT_SET_NO":999,"REV_AT_EPOCH":23869,"BSTAR":1.56283e-7,"MEAN_MOTION_DOT":1.0e-7,"MEAN_MOTION_DDOT":0},{"OBJECT_NAME":"COSMOS 678","OBJECT_ID":"1974-072B","EPOCH":"2026-03-09T15:41:34.742112","MEAN_MOTION":12.41798867,"ECCENTRICITY":0.0041397,"INCLINATION":74.0338,"RA_OF_ASC_NODE":123.32,"ARG_OF_PERICENTER":157.8225,"MEAN_ANOMALY":325.2655,"EPHEMERIS_TYPE":0,"CLASSIFICATION_TYPE":"U","NORAD_CAT_ID":7436,"ELEMENT_SET_NO":999,"REV_AT_EPOCH":33324,"BSTAR":1.5856e-5,"MEAN_MOTION_DOT":-1.3e-7,"MEAN_MOTION_DDOT":0}]
